TEVEL2-4                
1 63213U 25052D   26068.69417973  .00020990  00000+0  70363-3 0  9998
2 63213  97.4009 325.1237 0004733  95.3468 264.8313 15.30925813 54879
STARLINK-36409          
1 67406U 26005C   26068.48508282  .00042276  00000+0  15358-2 0  9999
2 67406  42.9972 239.2756 0001820 274.1600  85.9044 15.27606185  8664
